{
  "type": "FeatureCollection",
  "features": [
    {
      "type": "Feature",
      "properties": {
        "norad_id": 66522,
        "name": "STARLINK-35946",
        "group": "last-30-days",
        "lat": 0.5164225342435192,
        "lon": 32.09705295883932,
        "alt_km": 413.820440708706,
        "timestamp": "2025-12-16T13:52:36.285854+00:00",
        "meta_object_name": "STARLINK-35946",
        "meta_object_id": "2025-265G",
        "meta_epoch": "2025-12-15T13:08:21.967008",
        "meta_mean_motion": 15.50600216,
        "meta_eccentricity": 0.00023385,
        "meta_inclination": 43.0014,
        "meta_ra_of_asc_node": 37.5738,
        "meta_arg_of_pericenter": 283.487,
        "meta_mean_anomaly": 76.573,
        "meta_ephemeris_type": 0,
        "meta_classification_type": "U",
        "meta_norad_cat_id": 66522,
        "meta_element_set_no": 999,
        "meta_rev_at_epoch": 419,
        "meta_bstar": 0.00093603782,
        "meta_mean_motion_dot": 0.00055002,
        "meta_mean_motion_ddot": 0,
        "tle_line1": "1 66522U 25265G   25349.54747647  .00055002  00000+0  93604-3 0  9994",
        "tle_line2": "2 66522  43.0014  37.5738 0002338 283.4870  76.5730 15.50600216  4194"
      },
      "geometry": {
        "type": "Point",
        "coordinates": [
          32.09705295883932,
          0.5164225342435192
        ]
      }
    },
    {
      "type": "Feature",
      "properties": {
        "norad_id": 66523,
        "name": "STARLINK-35969",
        "group": "last-30-days",
        "lat": 2.0556641914049876,
        "lon": 33.74326274877285,
        "alt_km": 412.52764261434186,
        "timestamp": "2025-12-16T13:52:36.285865+00:00",
        "meta_object_name": "STARLINK-35969",
        "meta_object_id": "2025-265H",
        "meta_epoch": "2025-12-15T03:51:19.602720",
        "meta_mean_motion": 15.50616312,
        "meta_eccentricity": 0.00035212,
        "meta_inclination": 42.9978,
        "meta_ra_of_asc_node": 39.831,
        "meta_arg_of_pericenter": 299.9659,
        "meta_mean_anomaly": 60.0851,
        "meta_ephemeris_type": 0,
        "meta_classification_type": "U",
        "meta_norad_cat_id": 66523,
        "meta_element_set_no": 999,
        "meta_rev_at_epoch": 413,
        "meta_bstar": 0.0010201167,
        "meta_mean_motion_dot": 0.00060054,
        "meta_mean_motion_ddot": 0,
        "tle_line1": "1 66523U 25265H   25349.16064355  .00060054  00000+0  10201-2 0  9995",
        "tle_line2": "2 66523  42.9978  39.8310 0003521 299.9659  60.0851 15.50616312  4135"
      },
      "geometry": {
        "type": "Point",
        "coordinates": [
          33.74326274877285,
          2.0556641914049876
        ]
      }
    },
    {
      "type": "Feature",
      "properties": {
        "norad_id": 66524,
        "name": "STARLINK-35687",
        "group": "last-30-days",
        "lat": -12.259818827361311,
        "lon": -134.57875574111637,
        "alt_km": 444.94710094825405,
        "timestamp": "2025-12-16T13:52:36.285876+00:00",
        "meta_object_name": "STARLINK-35687",
        "meta_object_id": "2025-265J",
        "meta_epoch": "2025-12-15T22:00:01.999584",
        "meta_mean_motion": 15.40691197,
        "meta_eccentricity": 0.00016088,
        "meta_inclination": 43.001,
        "meta_ra_of_asc_node": 35.7495,
        "meta_arg_of_pericenter": 268.2275,
        "meta_mean_anomaly": 216.4303,
        "meta_ephemeris_type": 0,
        "meta_classification_type": "U",
        "meta_norad_cat_id": 66524,
        "meta_element_set_no": 999,
        "meta_rev_at_epoch": 550,
        "meta_bstar": 0.00028142529,
        "meta_mean_motion_dot": 0.00011466,
        "meta_mean_motion_ddot": 0,
        "tle_line1": "1 66524U 25265J   25349.91668981  .00011466  00000+0  28143-3 0  9992",
        "tle_line2": "2 66524  43.0010  35.7495 0001608 268.2275 216.4303 15.40691197  5505"
      },
      "geometry": {
        "type": "Point",
        "coordinates": [
          -134.57875574111637,
          -12.259818827361311
        ]
      }
    },
    {
      "type": "Feature",
      "properties": {
        "norad_id": 66525,
        "name": "STARLINK-35975",
        "group": "last-30-days",
        "lat": -39.16054378329697,
        "lon": -87.26076793926406,
        "alt_km": 446.8097875157864,
        "timestamp": "2025-12-16T13:52:36.285890+00:00",
        "meta_object_name": "STARLINK-35975",
        "meta_object_id": "2025-265K",
        "meta_epoch": "2025-12-15T22:00:01.999584",
        "meta_mean_motion": 15.40689813,
        "meta_eccentricity": 0.00011669,
        "meta_inclination": 43.0008,
        "meta_ra_of_asc_node": 35.6289,
        "meta_arg_of_pericenter": 300.0272,
        "meta_mean_anomaly": 234.395,
        "meta_ephemeris_type": 0,
        "meta_classification_type": "U",
        "meta_norad_cat_id": 66525,
        "meta_element_set_no": 999,
        "meta_rev_at_epoch": 550,
        "meta_bstar": 0.00022575097,
        "meta_mean_motion_dot": 9.135e-05,
        "meta_mean_motion_ddot": 0,
        "tle_line1": "1 66525U 25265K   25349.91668981  .00009135  00000+0  22575-3 0  9996",
        "tle_line2": "2 66525  43.0008  35.6289 0001166 300.0272 234.3950 15.40689813  5503"
      },
      "geometry": {
        "type": "Point",
        "coordinates": [
          -87.26076793926406,
          -39.16054378329697
        ]
      }
    },
    {
      "type": "Feature",
      "properties": {
        "norad_id": 66526,
        "name": "STARLINK-35932",
        "group": "last-30-days",
        "lat": 7.420698315735769,
        "lon": 39.5478954158815,
        "alt_km": 412.41344346239566,
        "timestamp": "2025-12-16T13:52:36.285902+00:00",
        "meta_object_name": "STARLINK-35932",
        "meta_object_id": "2025-265L",
        "meta_epoch": "2025-12-14T10:49:31.784448",
        "meta_mean_motion": 15.50621032,
        "meta_eccentricity": 0.00017397,
        "meta_inclination": 43.0001,
        "meta_ra_of_asc_node": 43.9653,
        "meta_arg_of_pericenter": 227.2965,
        "meta_mean_anomaly": 132.7749,
        "meta_ephemeris_type": 0,
        "meta_classification_type": "U",
        "meta_norad_cat_id": 66526,
        "meta_element_set_no": 999,
        "meta_rev_at_epoch": 402,
        "meta_bstar": 0.0026007534,
        "meta_mean_motion_dot": 0.00155535,
        "meta_mean_motion_ddot": 0,
        "tle_line1": "1 66526U 25265L   25348.45106232  .00155535  00000+0  26008-2 0  9991",
        "tle_line2": "2 66526  43.0001  43.9653 0001739 227.2965 132.7749 15.50621032  4022"
      },
      "geometry": {
        "type": "Point",
        "coordinates": [
          39.5478954158815,
          7.420698315735769
        ]
      }
    },
    {
      "type": "Feature",
      "properties": {
        "norad_id": 66527,
        "name": "STARLINK-35935",
        "group": "last-30-days",
        "lat": 7.4382349128280625,
        "lon": 39.57045929687174,
        "alt_km": 412.9987231432251,
        "timestamp": "2025-12-16T13:52:36.285913+00:00",
        "meta_object_name": "STARLINK-35935",
        "meta_object_id": "2025-265M",
        "meta_epoch": "2025-12-15T13:05:53.883456",
        "meta_mean_motion": 15.50717657,
        "meta_eccentricity": 0.00013255,
        "meta_inclination": 43.0008,
        "meta_ra_of_asc_node": 37.5593,
        "meta_arg_of_pericenter": 259.6498,
        "meta_mean_anomaly": 100.4213,
        "meta_ephemeris_type": 0,
        "meta_classification_type": "U",
        "meta_norad_cat_id": 66527,
        "meta_element_set_no": 999,
        "meta_rev_at_epoch": 419,
        "meta_bstar": 0.0016714965,
        "meta_mean_motion_dot": 0.00099462,
        "meta_mean_motion_ddot": 0,
        "tle_line1": "1 66527U 25265M   25349.54576254  .00099462  00000+0  16715-2 0  9998",
        "tle_line2": "2 66527  43.0008  37.5593 0001325 259.6498 100.4213 15.50717657  4198"
      },
      "geometry": {
        "type": "Point",
        "coordinates": [
          39.57045929687174,
          7.4382349128280625
        ]
      }
    },
    {
      "type": "Feature",
      "properties": {
        "norad_id": 66528,
        "name": "STARLINK-35928",
        "group": "last-30-days",
        "lat": 8.326819187026256,
        "lon": 40.5499173555004,
        "alt_km": 413.3947102134507,
        "timestamp": "2025-12-16T13:52:36.285923+00:00",
        "meta_object_name": "STARLINK-35928",
        "meta_object_id": "2025-265N",
        "meta_epoch": "2025-12-15T13:05:24.594720",
        "meta_mean_motion": 15.50596674,
        "meta_eccentricity": 0.00024505,
        "meta_inclination": 43.0023,
        "meta_ra_of_asc_node": 37.5569,
        "meta_arg_of_pericenter": 268.8478,
        "meta_mean_anomaly": 91.2102,
        "meta_ephemeris_type": 0,
        "meta_classification_type": "U",
        "meta_norad_cat_id": 66528,
        "meta_element_set_no": 999,
        "meta_rev_at_epoch": 419,
        "meta_bstar": 0.0011216232,
        "meta_mean_motion_dot": 0.00066061,
        "meta_mean_motion_ddot": 0,
        "tle_line1": "1 66528U 25265N   25349.54542355  .00066061  00000+0  11216-2 0  9994",
        "tle_line2": "2 66528  43.0023  37.5569 0002450 268.8478  91.2102 15.50596674  4197"
      },
      "geometry": {
        "type": "Point",
        "coordinates": [
          40.5499173555004,
          8.326819187026256
        ]
      }
    }
  ]
}